{
  "type": "FeatureCollection",
  "features": [
    {
      "type": "Feature",
      "properties": {
        "norad_id": 66422,
        "name": "STARLINK-35617",
        "group": "last-30-days",
        "lat": 40.621706732439186,
        "lon": 177.0239327851652,
        "alt_km": 436.5111432439562,
        "timestamp": "2025-12-09T23:33:22.607003+00:00",
        "meta_object_name": "STARLINK-35617",
        "meta_object_id": "2025-259A",
        "meta_epoch": "2025-12-09T12:12:10.263168",
        "meta_mean_motion": 15.40777762,
        "meta_eccentricity": 0.00010396,
        "meta_inclination": 43.0035,
        "meta_ra_of_asc_node": 66.7321,
        "meta_arg_of_pericenter": 134.0359,
        "meta_mean_anomaly": 226.0583,
        "meta_ephemeris_type": 0,
        "meta_classification_type": "U",
        "meta_norad_cat_id": 66422,
        "meta_element_set_no": 999,
        "meta_rev_at_epoch": 566,
        "meta_bstar": 0.0020546289,
        "meta_mean_motion_dot": 0.00086728,
        "meta_mean_motion_ddot": 0,
        "tle_line1": "1 66422U 25259A   25343.50845212  .00086728  00000+0  20546-2 0  9996",
        "tle_line2": "2 66422  43.0035  66.7321 0001039 134.0359 226.0583 15.40777762  5669"
      },
      "geometry": {
        "type": "Point",
        "coordinates": [
          177.0239327851652,
          40.621706732439186
        ]
      }
    },
    {
      "type": "Feature",
      "properties": {
        "norad_id": 66423,
        "name": "STARLINK-35618",
        "group": "last-30-days",
        "lat": 36.31730930379437,
        "lon": -168.09447988667014,
        "alt_km": 439.0807588999178,
        "timestamp": "2025-12-09T23:33:22.607016+00:00",
        "meta_object_name": "STARLINK-35618",
        "meta_object_id": "2025-259B",
        "meta_epoch": "2025-12-09T13:42:17.557056",
        "meta_mean_motion": 15.40793706,
        "meta_eccentricity": 0.00026102,
        "meta_inclination": 43.0016,
        "meta_ra_of_asc_node": 66.3405,
        "meta_arg_of_pericenter": 255.983,
        "meta_mean_anomaly": 104.0736,
        "meta_ephemeris_type": 0,
        "meta_classification_type": "U",
        "meta_norad_cat_id": 66423,
        "meta_element_set_no": 999,
        "meta_rev_at_epoch": 567,
        "meta_bstar": 0.0023852641,
        "meta_mean_motion_dot": 0.00100982,
        "meta_mean_motion_ddot": 0,
        "tle_line1": "1 66423U 25259B   25343.57103654  .00100982  00000+0  23853-2 0  9994",
        "tle_line2": "2 66423  43.0016  66.3405 0002610 255.9830 104.0736 15.40793706  5673"
      },
      "geometry": {
        "type": "Point",
        "coordinates": [
          -168.09447988667014,
          36.31730930379437
        ]
      }
    },
    {
      "type": "Feature",
      "properties": {
        "norad_id": 66424,
        "name": "STARLINK-35588",
        "group": "last-30-days",
        "lat": 30.39614630168392,
        "lon": -155.07294323341762,
        "alt_km": 438.7992141329469,
        "timestamp": "2025-12-09T23:33:22.607028+00:00",
        "meta_object_name": "STARLINK-35588",
        "meta_object_id": "2025-259C",
        "meta_epoch": "2025-12-09T15:12:25.909344",
        "meta_mean_motion": 15.40774262,
        "meta_eccentricity": 9.5e-06,
        "meta_inclination": 42.9991,
        "meta_ra_of_asc_node": 65.9476,
        "meta_arg_of_pericenter": 48.3818,
        "meta_mean_anomaly": 311.7047,
        "meta_ephemeris_type": 0,
        "meta_classification_type": "U",
        "meta_norad_cat_id": 66424,
        "meta_element_set_no": 999,
        "meta_rev_at_epoch": 568,
        "meta_bstar": 0.0021068116,
        "meta_mean_motion_dot": 0.00088955,
        "meta_mean_motion_ddot": 0,
        "tle_line1": "1 66424U 25259C   25343.63363321  .00088955  00000+0  21068-2 0  9992",
        "tle_line2": "2 66424  42.9991  65.9476 0000095  48.3818 311.7047 15.40774262  5681"
      },
      "geometry": {
        "type": "Point",
        "coordinates": [
          -155.07294323341762,
          30.39614630168392
        ]
      }
    },
    {
      "type": "Feature",
      "properties": {
        "norad_id": 66425,
        "name": "STARLINK-35555",
        "group": "last-30-days",
        "lat": 23.27394861885145,
        "lon": -143.579996700667,
        "alt_km": 439.9855464889042,
        "timestamp": "2025-12-09T23:33:22.607040+00:00",
        "meta_object_name": "STARLINK-35555",
        "meta_object_id": "2025-259D",
        "meta_epoch": "2025-12-09T15:09:11.364192",
        "meta_mean_motion": 15.40774478,
        "meta_eccentricity": 4.231e-05,
        "meta_inclination": 42.9991,
        "meta_ra_of_asc_node": 65.9288,
        "meta_arg_of_pericenter": 227.84,
        "meta_mean_anomaly": 132.2421,
        "meta_ephemeris_type": 0,
        "meta_classification_type": "U",
        "meta_norad_cat_id": 66425,
        "meta_element_set_no": 999,
        "meta_rev_at_epoch": 568,
        "meta_bstar": 0.001508767,
        "meta_mean_motion_dot": 0.00063403,
        "meta_mean_motion_ddot": 0,
        "tle_line1": "1 66425U 25259D   25343.63138153  .00063403  00000+0  15088-2 0  9992",
        "tle_line2": "2 66425  42.9991  65.9288 0000423 227.8400 132.2421 15.40774478  5680"
      },
      "geometry": {
        "type": "Point",
        "coordinates": [
          -143.579996700667,
          23.27394861885145
        ]
      }
    },
    {
      "type": "Feature",
      "properties": {
        "norad_id": 66426,
        "name": "STARLINK-35589",
        "group": "last-30-days",
        "lat": 15.559905321622725,
        "lon": -133.4994984611187,
        "alt_km": 442.2810452589183,
        "timestamp": "2025-12-09T23:33:22.607053+00:00",
        "meta_object_name": "STARLINK-35589",
        "meta_object_id": "2025-259E",
        "meta_epoch": "2025-12-09T16:00:01.999584",
        "meta_mean_motion": 15.40611215,
        "meta_eccentricity": 0.00015128,
        "meta_inclination": 43.001,
        "meta_ra_of_asc_node": 65.7007,
        "meta_arg_of_pericenter": 284.9097,
        "meta_mean_anomaly": 283.6759,
        "meta_ephemeris_type": 0,
        "meta_classification_type": "U",
        "meta_norad_cat_id": 66426,
        "meta_element_set_no": 999,
        "meta_rev_at_epoch": 578,
        "meta_bstar": 0.0027604694,
        "meta_mean_motion_dot": 0.0011644,
        "meta_mean_motion_ddot": 0,
        "tle_line1": "1 66426U 25259E   25343.66668981  .00116440  00000+0  27605-2 0  9991",
        "tle_line2": "2 66426  43.0010  65.7007 0001512 284.9097 283.6759 15.40611215  5783"
      },
      "geometry": {
        "type": "Point",
        "coordinates": [
          -133.4994984611187,
          15.559905321622725
        ]
      }
    },
    {
      "type": "Feature",
      "properties": {
        "norad_id": 66427,
        "name": "STARLINK-35611",
        "group": "last-30-days",
        "lat": 7.285180938020949,
        "lon": -124.03031870754404,
        "alt_km": 443.45230956897194,
        "timestamp": "2025-12-09T23:33:22.607066+00:00",
        "meta_object_name": "STARLINK-35611",
        "meta_object_id": "2025-259F",
        "meta_epoch": "2025-12-09T16:00:01.999584",
        "meta_mean_motion": 15.40612432,
        "meta_eccentricity": 0.000156,
        "meta_inclination": 43.0009,
        "meta_ra_of_asc_node": 65.6691,
        "meta_arg_of_pericenter": 290.7821,
        "meta_mean_anomaly": 290.2503,
        "meta_ephemeris_type": 0,
        "meta_classification_type": "U",
        "meta_norad_cat_id": 66427,
        "meta_element_set_no": 999,
        "meta_rev_at_epoch": 578,
        "meta_bstar": 0.0025956851,
        "meta_mean_motion_dot": 0.00109373,
        "meta_mean_motion_ddot": 0,
        "tle_line1": "1 66427U 25259F   25343.66668981  .00109373  00000+0  25957-2 0  9997",
        "tle_line2": "2 66427  43.0009  65.6691 0001560 290.7821 290.2503 15.40612432  5786"
      },
      "geometry": {
        "type": "Point",
        "coordinates": [
          -124.03031870754404,
          7.285180938020949
        ]
      }
    },
    {
      "type": "Feature",
      "properties": {
        "norad_id": 66428,
        "name": "STARLINK-35610",
        "group": "last-30-days",
        "lat": -1.1855503224118142,
        "lon": -114.90248013826938,
        "alt_km": 444.1105982348099,
        "timestamp": "2025-12-09T23:33:22.607080+00:00",
        "meta_object_name": "STARLINK-35610",
        "meta_object_id": "2025-259G",
        "meta_epoch": "2025-12-09T16:00:01.999584",
        "meta_mean_motion": 15.40694853,
        "meta_eccentricity": 0.0001449,
        "meta_inclination": 43.0012,
        "meta_ra_of_asc_node": 65.6396,
        "meta_arg_of_pericenter": 275.5101,
        "meta_mean_anomaly": 317.9294,
        "meta_ephemeris_type": 0,
        "meta_classification_type": "U",
        "meta_norad_cat_id": 66428,
        "meta_element_set_no": 999,
        "meta_rev_at_epoch": 578,
        "meta_bstar": -0.00029512742,
        "meta_mean_motion_dot": -0.00012609,
        "meta_mean_motion_ddot": 0,
        "tle_line1": "1 66428U 25259G   25343.66668981 -.00012609  00000+0 -29513-3 0  9998",
        "tle_line2": "2 66428  43.0012  65.6396 0001449 275.5101 317.9294 15.40694853  5782"
      },
      "geometry": {
        "type": "Point",
        "coordinates": [
          -114.90248013826938,
          -1.1855503224118142
        ]
      }
    }
  ]
}